AQUA                    
1 27424U 02022A   26094.21168007  .00001687  00000+0  34606-3 0  9994
2 27424  98.4218  62.0500 0001395 115.5772 301.1356 14.62040526272462
CZ-4B R/B               
1 27432U 02024C   26094.18417244  .00000078  00000+0  63494-4 0  9992
2 27432  98.8782 147.4560 0049260 311.3970 115.8052 14.14552522232846
MIDORI II (ADEOS-II)    
1 27597U 02056A   26094.28525966  .00000502  00000+0  21490-3 0  9992
2 27597  98.7815  52.9471 0000402  21.1810 338.9388 14.29306166213957
H-2A R/B                
1 27601U 02056E   26093.96610419  .00000549  00000+0  20626-3 0  9991
2 27601  98.3248  53.3763 0071422  86.3216 314.4590 14.33779897217735
CZ-4B R/B               
1 28059U 03049C   26094.24007148  .00000584  00000+0  14506-3 0  9992
2 28059  98.6898  90.1516 0048672 152.5223 207.8562 14.55044855190318
CZ-2C R/B               
1 28222U 04012C   26094.16766776  .00092548  00000+0  83231-3 0  9997
2 28222  97.7167 161.9274 0013669 209.9173 150.1308 15.67822656208265
SL-16 R/B               
1 28353U 04021B   26094.26713521  .00000392  00000+0  22885-3 0  9997
2 28353  71.0013 178.8182 0005399 337.7154  22.3733 14.14599793126456
CZ-4B R/B               
1 28415U 04035C   26094.10057608  .00015142  00000+0  52377-3 0  9999
2 28415  97.3449 128.0403 0030281 236.4102 123.4247 15.29539324183792
CZ-2C R/B               
1 28480U 04046B   26094.21891237  .00000279  00000+0  11819-3 0  9990
2 28480  98.1976   7.6121 0140634  79.4714 282.2277 14.27002608112140
ARIANE 5 R/B            
1 28499U 04049H   26094.03016544  .00001512  00000+0  17273-3 0  9994
2 28499  98.2664 263.4426 0082815 268.9464  90.2261 14.85317938149552
CZ-2D R/B               
1 28738U 05024B   26094.02537417  .00075160  00000+0  83606-3 0  9993
2 28738  97.3569 110.1424 0001832 282.0068  78.0984 15.62633125143730
ALOS (DAICHI)           
1 28931U 06002A   26093.89492224  .00002578  00000+0  43922-3 0  9995
2 28931  98.1261  49.7320 0001107 115.1518 244.9803 14.69893925 77187
