CCSDS_OMM_VERS = 2.0
CREATION_DATE  = 
ORIGINATOR     = 

OBJECT_NAME    = AQUA
OBJECT_ID      = 2002-022A
CENTER_NAME    = EARTH
REF_FRAME      = TEME
TIME_SYSTEM    = UTC
MEAN_ELEMENT_THEORY = SGP/SGP4

EPOCH          = 2026-04-04T05:04:49.158048
MEAN_MOTION    = 14.62040526
ECCENTRICITY   = .00013956
INCLINATION    = 98.4218
RA_OF_ASC_NODE = 62.0500
ARG_OF_PERICENTER = 115.5772
MEAN_ANOMALY   = 301.1356

EPHEMERIS_TYPE = 0
CLASSIFICATION_TYPE = U
NORAD_CAT_ID   = 27424
ELEMENT_SET_NO = 999
REV_AT_EPOCH   = 27246
BSTAR          = .34606173E-3
MEAN_MOTION_DOT = .1687E-4
MEAN_MOTION_DDOT = 0

CCSDS_OMM_VERS = 2.0
CREATION_DATE  = 
ORIGINATOR     = 

OBJECT_NAME    = CZ-4B R/B
OBJECT_ID      = 2002-024C
CENTER_NAME    = EARTH
REF_FRAME      = TEME
TIME_SYSTEM    = UTC
MEAN_ELEMENT_THEORY = SGP/SGP4

EPOCH          = 2026-04-04T04:25:12.498816
MEAN_MOTION    = 14.14552522
ECCENTRICITY   = .00492608
INCLINATION    = 98.8782
RA_OF_ASC_NODE = 147.4560
ARG_OF_PERICENTER = 311.3970
MEAN_ANOMALY   = 115.8052

EPHEMERIS_TYPE = 0
CLASSIFICATION_TYPE = U
NORAD_CAT_ID   = 27432
ELEMENT_SET_NO = 999
REV_AT_EPOCH   = 23284
BSTAR          = .6349394E-4
MEAN_MOTION_DOT = .78E-6
MEAN_MOTION_DDOT = 0

CCSDS_OMM_VERS = 2.0
CREATION_DATE  = 
ORIGINATOR     = 

OBJECT_NAME    = MIDORI II (ADEOS-II)
OBJECT_ID      = 2002-056A
CENTER_NAME    = EARTH
REF_FRAME      = TEME
TIME_SYSTEM    = UTC
MEAN_ELEMENT_THEORY = SGP/SGP4

EPOCH          = 2026-04-04T06:50:46.434624
MEAN_MOTION    = 14.29306166
ECCENTRICITY   = .0000402
INCLINATION    = 98.7815
RA_OF_ASC_NODE = 52.9471
ARG_OF_PERICENTER = 21.1810
MEAN_ANOMALY   = 338.9388

EPHEMERIS_TYPE = 0
CLASSIFICATION_TYPE = U
NORAD_CAT_ID   = 27597
ELEMENT_SET_NO = 999
REV_AT_EPOCH   = 21395
BSTAR          = .21489819E-3
MEAN_MOTION_DOT = .502E-5
MEAN_MOTION_DDOT = 0

CCSDS_OMM_VERS = 2.0
CREATION_DATE  = 
ORIGINATOR     = 

OBJECT_NAME    = H-2A R/B
OBJECT_ID      = 2002-056E
CENTER_NAME    = EARTH
REF_FRAME      = TEME
TIME_SYSTEM    = UTC
MEAN_ELEMENT_THEORY = SGP/SGP4

EPOCH          = 2026-04-03T23:11:11.402016
MEAN_MOTION    = 14.33779897
ECCENTRICITY   = .00714223
INCLINATION    = 98.3248
RA_OF_ASC_NODE = 53.3763
ARG_OF_PERICENTER = 86.3216
MEAN_ANOMALY   = 314.4590

EPHEMERIS_TYPE = 0
CLASSIFICATION_TYPE = U
NORAD_CAT_ID   = 27601
ELEMENT_SET_NO = 999
REV_AT_EPOCH   = 21773
BSTAR          = .20625719E-3
MEAN_MOTION_DOT = .549E-5
MEAN_MOTION_DDOT = 0

CCSDS_OMM_VERS = 2.0
CREATION_DATE  = 
ORIGINATOR     = 

OBJECT_NAME    = CZ-4B R/B
OBJECT_ID      = 2003-049C
CENTER_NAME    = EARTH
REF_FRAME      = TEME
TIME_SYSTEM    = UTC
MEAN_ELEMENT_THEORY = SGP/SGP4

EPOCH          = 2026-04-04T05:45:42.175872
MEAN_MOTION    = 14.55044855
ECCENTRICITY   = .00486722
INCLINATION    = 98.6898
RA_OF_ASC_NODE = 90.1516
ARG_OF_PERICENTER = 152.5223
MEAN_ANOMALY   = 207.8562

EPHEMERIS_TYPE = 0
CLASSIFICATION_TYPE = U
NORAD_CAT_ID   = 28059
ELEMENT_SET_NO = 999
REV_AT_EPOCH   = 19031
BSTAR          = .14506149E-3
MEAN_MOTION_DOT = .584E-5
MEAN_MOTION_DDOT = 0

CCSDS_OMM_VERS = 2.0
CREATION_DATE  = 
ORIGINATOR     = 

OBJECT_NAME    = CZ-2C R/B
OBJECT_ID      = 2004-012C
CENTER_NAME    = EARTH
REF_FRAME      = TEME
TIME_SYSTEM    = UTC
MEAN_ELEMENT_THEORY = SGP/SGP4

EPOCH          = 2026-04-04T04:01:26.494464
MEAN_MOTION    = 15.67822656
ECCENTRICITY   = .00136697
INCLINATION    = 97.7167
RA_OF_ASC_NODE = 161.9274
ARG_OF_PERICENTER = 209.9173
MEAN_ANOMALY   = 150.1308

EPHEMERIS_TYPE = 0
CLASSIFICATION_TYPE = U
NORAD_CAT_ID   = 28222
ELEMENT_SET_NO = 999
REV_AT_EPOCH   = 20826
BSTAR          = .83231345E-3
MEAN_MOTION_DOT = .92548E-3
MEAN_MOTION_DDOT = 0

CCSDS_OMM_VERS = 2.0
CREATION_DATE  = 
ORIGINATOR     = 

OBJECT_NAME    = SL-16 R/B
OBJECT_ID      = 2004-021B
CENTER_NAME    = EARTH
REF_FRAME      = TEME
TIME_SYSTEM    = UTC
MEAN_ELEMENT_THEORY = SGP/SGP4

EPOCH          = 2026-04-04T06:24:40.482144
MEAN_MOTION    = 14.14599793
ECCENTRICITY   = .00053996
INCLINATION    = 71.0013
RA_OF_ASC_NODE = 178.8182
ARG_OF_PERICENTER = 337.7154
MEAN_ANOMALY   = 22.3733

EPHEMERIS_TYPE = 0
CLASSIFICATION_TYPE = U
NORAD_CAT_ID   = 28353
ELEMENT_SET_NO = 999
REV_AT_EPOCH   = 12645
BSTAR          = .22884853E-3
MEAN_MOTION_DOT = .392E-5
MEAN_MOTION_DDOT = 0

CCSDS_OMM_VERS = 2.0
CREATION_DATE  = 
ORIGINATOR     = 

OBJECT_NAME    = CZ-4B R/B
OBJECT_ID      = 2004-035C
CENTER_NAME    = EARTH
REF_FRAME      = TEME
TIME_SYSTEM    = UTC
MEAN_ELEMENT_THEORY = SGP/SGP4

EPOCH          = 2026-04-04T02:24:49.773312
MEAN_MOTION    = 15.29539324
ECCENTRICITY   = .00302817
INCLINATION    = 97.3449
RA_OF_ASC_NODE = 128.0403
ARG_OF_PERICENTER = 236.4102
MEAN_ANOMALY   = 123.4247

EPHEMERIS_TYPE = 0
CLASSIFICATION_TYPE = U
NORAD_CAT_ID   = 28415
ELEMENT_SET_NO = 999
REV_AT_EPOCH   = 18379
BSTAR          = .52377129E-3
MEAN_MOTION_DOT = .15142E-3
MEAN_MOTION_DDOT = 0

CCSDS_OMM_VERS = 2.0
CREATION_DATE  = 
ORIGINATOR     = 

OBJECT_NAME    = CZ-2C R/B
OBJECT_ID      = 2004-046B
CENTER_NAME    = EARTH
REF_FRAME      = TEME
TIME_SYSTEM    = UTC
MEAN_ELEMENT_THEORY = SGP/SGP4

EPOCH          = 2026-04-04T05:15:14.028768
MEAN_MOTION    = 14.27002608
ECCENTRICITY   = .01406347
INCLINATION    = 98.1976
RA_OF_ASC_NODE = 7.6121
ARG_OF_PERICENTER = 79.4714
MEAN_ANOMALY   = 282.2277

EPHEMERIS_TYPE = 0
CLASSIFICATION_TYPE = U
NORAD_CAT_ID   = 28480
ELEMENT_SET_NO = 999
REV_AT_EPOCH   = 11214
BSTAR          = .11818666E-3
MEAN_MOTION_DOT = .279E-5
MEAN_MOTION_DDOT = 0

CCSDS_OMM_VERS = 2.0
CREATION_DATE  = 
ORIGINATOR     = 

OBJECT_NAME    = ARIANE 5 R/B
OBJECT_ID      = 2004-049H
CENTER_NAME    = EARTH
REF_FRAME      = TEME
TIME_SYSTEM    = UTC
MEAN_ELEMENT_THEORY = SGP/SGP4

EPOCH          = 2026-04-04T00:43:26.294016
MEAN_MOTION    = 14.85317938
ECCENTRICITY   = .00828152
INCLINATION    = 98.2664
RA_OF_ASC_NODE = 263.4426
ARG_OF_PERICENTER = 268.9464
MEAN_ANOMALY   = 90.2261

EPHEMERIS_TYPE = 0
CLASSIFICATION_TYPE = U
NORAD_CAT_ID   = 28499
ELEMENT_SET_NO = 999
REV_AT_EPOCH   = 14955
BSTAR          = .17272836E-3
MEAN_MOTION_DOT = .1512E-4
MEAN_MOTION_DDOT = 0

CCSDS_OMM_VERS = 2.0
CREATION_DATE  = 
ORIGINATOR     = 

OBJECT_NAME    = CZ-2D R/B
OBJECT_ID      = 2005-024B
CENTER_NAME    = EARTH
REF_FRAME      = TEME
TIME_SYSTEM    = UTC
MEAN_ELEMENT_THEORY = SGP/SGP4

EPOCH          = 2026-04-04T00:36:32.328288
MEAN_MOTION    = 15.62633125
ECCENTRICITY   = .00018326
INCLINATION    = 97.3569
RA_OF_ASC_NODE = 110.1424
ARG_OF_PERICENTER = 282.0068
MEAN_ANOMALY   = 78.0984

EPHEMERIS_TYPE = 0
CLASSIFICATION_TYPE = U
NORAD_CAT_ID   = 28738
ELEMENT_SET_NO = 999
REV_AT_EPOCH   = 14373
BSTAR          = .83606444E-3
MEAN_MOTION_DOT = .7516E-3
MEAN_MOTION_DDOT = 0

CCSDS_OMM_VERS = 2.0
CREATION_DATE  = 
ORIGINATOR     = 

OBJECT_NAME    = ALOS (DAICHI)
OBJECT_ID      = 2006-002A
CENTER_NAME    = EARTH
REF_FRAME      = TEME
TIME_SYSTEM    = UTC
MEAN_ELEMENT_THEORY = SGP/SGP4

EPOCH          = 2026-04-03T21:28:41.281536
MEAN_MOTION    = 14.69893925
ECCENTRICITY   = .00011077
INCLINATION    = 98.1261
RA_OF_ASC_NODE = 49.7320
ARG_OF_PERICENTER = 115.1518
MEAN_ANOMALY   = 244.9803

EPHEMERIS_TYPE = 0
CLASSIFICATION_TYPE = U
NORAD_CAT_ID   = 28931
ELEMENT_SET_NO = 999
REV_AT_EPOCH   = 7718
BSTAR          = .43921805E-3
MEAN_MOTION_DOT = .2578E-4
MEAN_MOTION_DDOT = 0

